{"type": "FeatureCollection", "features": [ {"type": "Feature", "properties": {"norad_id": 66560, "name": "STARLINK-35411", "group": "last-30-days", "lat": -27.835170257153457, "lon": 50.65807772740631, "alt_km": 416.3482450428337, "timestamp": "2025-12-18T21:31:49.698081+00:00", "meta": {"OBJECT_NAME": "STARLINK-35411", "OBJECT_ID": "2025-268D", "EPOCH": "2025-12-18T00:04:28.174368", "MEAN_MOTION": 15.5060011, "ECCENTRICITY": 9.925e-05, "INCLINATION": 43.0001, "RA_OF_ASC_NODE": 90.4058, "ARG_OF_PERICENTER": 284.0327, "MEAN_ANOMALY": 76.0423, "EPHEMERIS_TYPE": 0, "CLASSIFICATION_TYPE": "U", "NORAD_CAT_ID": 66560, "ELEMENT_SET_NO": 999, "REV_AT_EPOCH": 544, "BSTAR": 0.0019422689, "MEAN_MOTION_DOT": 0.00115382, "MEAN_MOTION_DDOT": 0}, "tle": {"line1": "1 66560U 25268D   25352.00310387  .00115382  00000+0  19423-2 0  9995", "line2": "2 66560  43.0001  90.4058 0000992 284.0327  76.0423 15.50600110  5449"}}, "geometry": {"type": "Point", "coordinates": [50.65807772740631, -27.835170257153457]}}, {"type": "Feature", "properties": {"norad_id": 66561, "name": "STARLINK-35305", "group": "last-30-days", "lat": -25.641416021062483, "lon": 54.16138693291433, "alt_km": 416.31198762172335, "timestamp": "2025-12-18T21:31:49.698092+00:00", "meta": {"OBJECT_NAME": "STARLINK-35305", "OBJECT_ID": "2025-268E", "EPOCH": "2025-12-18T00:03:29.017152", "MEAN_MOTION": 15.50603624, "ECCENTRICITY": 9.191e-05, "INCLINATION": 43.0009, "RA_OF_ASC_NODE": 90.4008, "ARG_OF_PERICENTER": 275.7133, "MEAN_ANOMALY": 84.3622, "EPHEMERIS_TYPE": 0, "CLASSIFICATION_TYPE": "U", "NORAD_CAT_ID": 66561, "ELEMENT_SET_NO": 999, "REV_AT_EPOCH": 544, "BSTAR": 0.0018887599, "MEAN_MOTION_DOT": 0.00112161, "MEAN_MOTION_DDOT": 0}, "tle": {"line1": "1 66561U 25268E   25352.00241918  .00112161  00000+0  18888-2 0  9995", "line2": "2 66561  43.0009  90.4008 0000919 275.7133  84.3622 15.50603624  5440"}}, "geometry": {"type": "Point", "coordinates": [54.16138693291433, -25.641416021062483]}}, {"type": "Feature", "properties": {"norad_id": 66562, "name": "STARLINK-35579", "group": "last-30-days", "lat": -26.904551188593278, "lon": 52.177459105847454, "alt_km": 416.3419638037749, "timestamp": "2025-12-18T21:31:49.698102+00:00", "meta": {"OBJECT_NAME": "STARLINK-35579", "OBJECT_ID": "2025-268F", "EPOCH": "2025-12-18T00:04:00.227424", "MEAN_MOTION": 15.50586039, "ECCENTRICITY": 0.00017317, "INCLINATION": 43.0006, "RA_OF_ASC_NODE": 90.4028, "ARG_OF_PERICENTER": 264.7288, "MEAN_ANOMALY": 95.3375, "EPHEMERIS_TYPE": 0, "CLASSIFICATION_TYPE": "U", "NORAD_CAT_ID": 66562, "ELEMENT_SET_NO": 999, "REV_AT_EPOCH": 544, "BSTAR": 0.0012420253, "MEAN_MOTION_DOT": 0.00073226, "MEAN_MOTION_DDOT": 0}, "tle": {"line1": "1 66562U 25268F   25352.00278041  .00073226  00000+0  12420-2 0  9997", "line2": "2 66562  43.0006  90.4028 0001731 264.7288  95.3375 15.50586039  5449"}}, "geometry": {"type": "Point", "coordinates": [52.177459105847454, -26.904551188593278]}}, {"type": "Feature", "properties": {"norad_id": 66563, "name": "STARLINK-35437", "group": "last-30-days", "lat": -24.589813088927666, "lon": 55.747912902373706, "alt_km": 416.1209900322756, "timestamp": "2025-12-18T21:31:49.698112+00:00", "meta": {"OBJECT_NAME": "STARLINK-35437", "OBJECT_ID": "2025-268G", "EPOCH": "2025-12-18T00:02:59.029440", "MEAN_MOTION": 15.50597611, "ECCENTRICITY": 0.00016674, "INCLINATION": 42.9987, "RA_OF_ASC_NODE": 90.3988, "ARG_OF_PERICENTER": 275.2457, "MEAN_ANOMALY": 84.8212, "EPHEMERIS_TYPE": 0, "CLASSIFICATION_TYPE": "U", "NORAD_CAT_ID": 66563, "ELEMENT_SET_NO": 999, "REV_AT_EPOCH": 544, "BSTAR": 0.0011024154, "MEAN_MOTION_DOT": 0.00064914, "MEAN_MOTION_DDOT": 0}, "tle": {"line1": "1 66563U 25268G   25352.00207210  .00064914  00000+0  11024-2 0  9991", "line2": "2 66563  42.9987  90.3988 0001667 275.2457  84.8212 15.50597611  5444"}}, "geometry": {"type": "Point", "coordinates": [55.747912902373706, -24.589813088927666]}}, {"type": "Feature", "properties": {"norad_id": 66564, "name": "STARLINK-35358", "group": "last-30-days", "lat": -23.430496384450194, "lon": 57.44461087546236, "alt_km": 415.77620203867355, "timestamp": "2025-12-18T21:31:49.698124+00:00", "meta": {"OBJECT_NAME": "STARLINK-35358", "OBJECT_ID": "2025-268H", "EPOCH": "2025-12-18T00:02:29.171328", "MEAN_MOTION": 15.50596952, "ECCENTRICITY": 0.00023862, "INCLINATION": 43.0032, "RA_OF_ASC_NODE": 90.3946, "ARG_OF_PERICENTER": 270.3496, "MEAN_ANOMALY": 89.709, "EPHEMERIS_TYPE": 0, "CLASSIFICATION_TYPE": "U", "NORAD_CAT_ID": 66564, "ELEMENT_SET_NO": 999, "REV_AT_EPOCH": 544, "BSTAR": 0.0011847753, "MEAN_MOTION_DOT": 0.00069834, "MEAN_MOTION_DDOT": 0}, "tle": {"line1": "1 66564U 25268H   25352.00172652  .00069834  00000+0  11848-2 0  9993", "line2": "2 66564  43.0032  90.3946 0002386 270.3496  89.7090 15.50596952  5445"}}, "geometry": {"type": "Point", "coordinates": [57.44461087546236, -23.430496384450194]}}, {"type": "Feature", "properties": {"norad_id": 66565, "name": "STARLINK-35893", "group": "last-30-days", "lat": -22.2641027373909, "lon": 59.09100442588662, "alt_km": 415.8351900257294, "timestamp": "2025-12-18T21:31:49.698135+00:00", "meta": {"OBJECT_NAME": "STARLINK-35893", "OBJECT_ID": "2025-268J", "EPOCH": "2025-12-18T00:01:59.584512", "MEAN_MOTION": 15.50595913, "ECCENTRICITY": 0.00021644, "INCLINATION": 43.0022, "RA_OF_ASC_NODE": 90.3916, "ARG_OF_PERICENTER": 269.1523, "MEAN_ANOMALY": 90.909, "EPHEMERIS_TYPE": 0, "CLASSIFICATION_TYPE": "U", "NORAD_CAT_ID": 66565, "ELEMENT_SET_NO": 999, "REV_AT_EPOCH": 544, "BSTAR": 0.0012222633, "MEAN_MOTION_DOT": 0.00072071, "MEAN_MOTION_DDOT": 0}, "tle": {"line1": "1 66565U 25268J   25352.00138408  .00072071  00000+0  12223-2 0  9990", "line2": "2 66565  43.0022  90.3916 0002164 269.1523  90.9090 15.50595913  5443"}}, "geometry": {"type": "Point", "coordinates": [59.09100442588662, -22.2641027373909]}}, {"type": "Feature", "properties": {"norad_id": 66566, "name": "STARLINK-35871", "group": "last-30-days", "lat": -21.270162639008575, "lon": 60.452453892249935, "alt_km": 416.4863832252631, "timestamp": "2025-12-18T21:31:49.698145+00:00", "meta": {"OBJECT_NAME": "STARLINK-35871", "OBJECT_ID": "2025-268K", "EPOCH": "2025-12-18T00:00:02.000160", "MEAN_MOTION": 15.50546235, "ECCENTRICITY": 0.00015524, "INCLINATION": 43.001, "RA_OF_ASC_NODE": 90.3927, "ARG_OF_PERICENTER": 267.7288, "MEAN_ANOMALY": 86.6648, "EPHEMERIS_TYPE": 0, "CLASSIFICATION_TYPE": "U", "NORAD_CAT_ID": 66566, "ELEMENT_SET_NO": 999, "REV_AT_EPOCH": 551, "BSTAR": 0.00028776035, "MEAN_MOTION_DOT": 0.00016556, "MEAN_MOTION_DDOT": 0}, "tle": {"line1": "1 66566U 25268K   25352.00002315  .00016556  00000+0  28776-3 0  9995", "line2": "2 66566  43.0010  90.3927 0001552 267.7288  86.6648 15.50546235  5517"}}, "geometry": {"type": "Point", "coordinates": [60.452453892249935, -21.270162639008575]}}, {"type": "Feature", "properties": {"norad_id": 66567, "name": "STARLINK-35825", "group": "last-30-days", "lat": -19.843029149589324, "lon": 62.355425798733286, "alt_km": 415.8385542402466, "timestamp": "2025-12-18T21:31:49.698154+00:00", "meta": {"OBJECT_NAME": "STARLINK-35825", "OBJECT_ID": "2025-268L", "EPOCH": "2025-12-18T00:01:00.568128", "MEAN_MOTION": 15.50603339, "ECCENTRICITY": 0.00014546, "INCLINATION": 42.9998, "RA_OF_ASC_NODE": 90.3853, "ARG_OF_PERICENTER": 270.9237, "MEAN_ANOMALY": 89.1456, "EPHEMERIS_TYPE": 0, "CLASSIFICATION_TYPE": "U", "NORAD_CAT_ID": 66567, "ELEMENT_SET_NO": 999, "REV_AT_EPOCH": 544, "BSTAR": 0.0015567358, "MEAN_MOTION_DOT": 0.00092146, "MEAN_MOTION_DDOT": 0}, "tle": {"line1": "1 66567U 25268L   25352.00070102  .00092146  00000+0  15567-2 0  9997", "line2": "2 66567  42.9998  90.3853 0001454 270.9237  89.1456 15.50603339  5446"}}, "geometry": {"type": "Point", "coordinates": [62.355425798733286, -19.843029149589324]}}, {"type": "Feature", "properties": {"norad_id": 66568, "name": "STARLINK-35803", "group": "last-30-days", "lat": -18.644660322907637, "lon": 63.90372286823869, "alt_km": 416.13950919888157, "timestamp": "2025-12-18T21:31:49.698164+00:00", "meta": {"OBJECT_NAME": "STARLINK-35803", "OBJECT_ID": "2025-268M", "EPOCH": "2025-12-18T00:00:31.378752", "MEAN_MOTION": 15.50604278, "ECCENTRICITY": 2.905e-05, "INCLINATION": 42.9973, "RA_OF_ASC_NODE": 90.3815, "ARG_OF_PERICENTER": 304.0153, "MEAN_ANOMALY": 56.068, "EPHEMERIS_TYPE": 0, "CLASSIFICATION_TYPE": "U", "NORAD_CAT_ID": 66568, "ELEMENT_SET_NO": 999, "REV_AT_EPOCH": 544, "BSTAR": 0.0015659743, "MEAN_MOTION_DOT": 0.00092705, "MEAN_MOTION_DDOT": 0}, "tle": {"line1": "1 66568U 25268M   25352.00036318  .00092705  00000+0  15660-2 0  9994", "line2": "2 66568  42.9973  90.3815 0000290 304.0153  56.0680 15.50604278  5446"}}, "geometry": {"type": "Point", "coordinates": [63.90372286823869, -18.644660322907637]}}, {"type": "Feature", "properties": {"norad_id": 66569, "name": "STARLINK-35835", "group": "last-30-days", "lat": -17.49052982176488, "lon": 65.36436622207421, "alt_km": 416.2438374332305, "timestamp": "2025-12-18T21:31:49.698177+00:00", "meta": {"OBJECT_NAME": "STARLINK-35835", "OBJECT_ID": "2025-268N", "EPOCH": "2025-12-18T04:38:17.741760", "MEAN_MOTION": 15.50619099, "ECCENTRICITY": 2.062e-05, "INCLINATION": 42.9974, "RA_OF_ASC_NODE": 89.2499, "ARG_OF_PERICENTER": 317.9673, "MEAN_ANOMALY": 42.1171, "EPHEMERIS_TYPE": 0, "CLASSIFICATION_TYPE": "U", "NORAD_CAT_ID": 66569, "ELEMENT_SET_NO": 999, "REV_AT_EPOCH": 547, "BSTAR": 0.0011190745, "MEAN_MOTION_DOT": 0.00065958, "MEAN_MOTION_DDOT": 0}, "tle": {"line1": "1 66569U 25268N   25352.19326090  .00065958  00000+0  11191-2 0  9999", "line2": "2 66569  42.9974  89.2499 0000206 317.9673  42.1171 15.50619099  5471"}}, "geometry": {"type": "Point", "coordinates": [65.36436622207421, -17.49052982176488]}}]}